[{"OBJECT_NAME":"STARLINK-34515","OBJECT_ID":"2025-142S","EPOCH":"2026-01-27T07:03:17.813088","MEAN_MOTION":14.98332095,"ECCENTRICITY":0.00031225,"INCLINATION":70.0015,"RA_OF_ASC_NODE":58.6604,"ARG_OF_PERICENTER":269.5198,"MEAN_ANOMALY":90.5603,"EPHEMERIS_TYPE":0,"CLASSIFICATION_TYPE":"U","NORAD_CAT_ID":64712,"ELEMENT_SET_NO":999,"REV_AT_EPOCH":3326,"BSTAR":0.00020472608,"MEAN_MOTION_DOT":2.351e-5,"MEAN_MOTION_DDOT":0},{"OBJECT_NAME":"STARLINK-34583","OBJECT_ID":"2025-142T","EPOCH":"2026-01-27T06:28:23.261088","MEAN_MOTION":14.95912487,"ECCENTRICITY":0.00028968,"INCLINATION":70.0027,"RA_OF_ASC_NODE":58.9709,"ARG_OF_PERICENTER":265.3531,"MEAN_ANOMALY":94.7296,"EPHEMERIS_TYPE":0,"CLASSIFICATION_TYPE":"U","NORAD_CAT_ID":64713,"ELEMENT_SET_NO":999,"REV_AT_EPOCH":3325,"BSTAR":0.000750752,"MEAN_MOTION_DOT":8.337e-5,"MEAN_MOTION_DDOT":0},{"OBJECT_NAME":"STARLINK-34574","OBJECT_ID":"2025-142U","EPOCH":"2026-01-27T03:02:58.700256","MEAN_MOTION":14.98340369,"ECCENTRICITY":0.0002498,"INCLINATION":70.0036,"RA_OF_ASC_NODE":59.3056,"ARG_OF_PERICENTER":273.3444,"MEAN_ANOMALY":86.743,"EPHEMERIS_TYPE":0,"CLASSIFICATION_TYPE":"U","NORAD_CAT_ID":64714,"ELEMENT_SET_NO":999,"REV_AT_EPOCH":3326,"BSTAR":0.00079998935,"MEAN_MOTION_DOT":9.468e-5,"MEAN_MOTION_DDOT":0},{"OBJECT_NAME":"STARLINK-34533","OBJECT_ID":"2025-142V","EPOCH":"2026-01-27T01:08:34.221120","MEAN_MOTION":14.98343398,"ECCENTRICITY":0.00029171,"INCLINATION":70.0027,"RA_OF_ASC_NODE":59.4354,"ARG_OF_PERICENTER":281.4885,"MEAN_ANOMALY":78.5946,"EPHEMERIS_TYPE":0,"CLASSIFICATION_TYPE":"U","NORAD_CAT_ID":64715,"ELEMENT_SET_NO":999,"REV_AT_EPOCH":3322,"BSTAR":0.0005357651,"MEAN_MOTION_DOT":6.308e-5,"MEAN_MOTION_DDOT":0},{"OBJECT_NAME":"STARLINK-34548","OBJECT_ID":"2025-142W","EPOCH":"2026-01-27T07:09:04.179456","MEAN_MOTION":14.98341645,"ECCENTRICITY":0.00036159,"INCLINATION":70.0015,"RA_OF_ASC_NODE":58.7024,"ARG_OF_PERICENTER":265.976,"MEAN_ANOMALY":94.0986,"EPHEMERIS_TYPE":0,"CLASSIFICATION_TYPE":"U","NORAD_CAT_ID":64716,"ELEMENT_SET_NO":999,"REV_AT_EPOCH":3326,"BSTAR":0.00071153338,"MEAN_MOTION_DOT":8.41e-5,"MEAN_MOTION_DDOT":0},{"OBJECT_NAME":"STARLINK-34568","OBJECT_ID":"2025-142X","EPOCH":"2026-01-27T07:45:07.816896","MEAN_MOTION":14.98327014,"ECCENTRICITY":0.0002929,"INCLINATION":70.0026,"RA_OF_ASC_NODE":58.7914,"ARG_OF_PERICENTER":268.6351,"MEAN_ANOMALY":91.4472,"EPHEMERIS_TYPE":0,"CLASSIFICATION_TYPE":"U","NORAD_CAT_ID":64717,"ELEMENT_SET_NO":999,"REV_AT_EPOCH":3329,"BSTAR":0.00048408796,"MEAN_MOTION_DOT":5.687e-5,"MEAN_MOTION_DDOT":0},{"OBJECT_NAME":"STARLINK-34546","OBJECT_ID":"2025-142Y","EPOCH":"2026-01-27T06:57:03.153312","MEAN_MOTION":14.98352261,"ECCENTRICITY":0.00030069,"INCLINATION":70.0026,"RA_OF_ASC_NODE":58.6711,"ARG_OF_PERICENTER":271.2612,"MEAN_ANOMALY":88.8203,"EPHEMERIS_TYPE":0,"CLASSIFICATION_TYPE":"U","NORAD_CAT_ID":64718,"ELEMENT_SET_NO":999,"REV_AT_EPOCH":3345,"BSTAR":0.00081268244,"MEAN_MOTION_DOT":9.623e-5,"MEAN_MOTION_DDOT":0},{"OBJECT_NAME":"STARLINK-34577","OBJECT_ID":"2025-142Z","EPOCH":"2026-01-27T07:46:47.622720","MEAN_MOTION":14.95915116,"ECCENTRICITY":0.00027017,"INCLINATION":70.0024,"RA_OF_ASC_NODE":58.3675,"ARG_OF_PERICENTER":273.3358,"MEAN_ANOMALY":86.749,"EPHEMERIS_TYPE":0,"CLASSIFICATION_TYPE":"U","NORAD_CAT_ID":64719,"ELEMENT_SET_NO":999,"REV_AT_EPOCH":3330,"BSTAR":0.00032742213,"MEAN_MOTION_DOT":3.583e-5,"MEAN_MOTION_DDOT":0},{"OBJECT_NAME":"STARLINK-34572","OBJECT_ID":"2025-142AA","EPOCH":"2026-01-27T04:26:51.239328","MEAN_MOTION":14.98339252,"ECCENTRICITY":0.0002508,"INCLINATION":70.0027,"RA_OF_ASC_NODE":59.1113,"ARG_OF_PERICENTER":276.1274,"MEAN_ANOMALY":83.9599,"EPHEMERIS_TYPE":0,"CLASSIFICATION_TYPE":"U","NORAD_CAT_ID":64720,"ELEMENT_SET_NO":999,"REV_AT_EPOCH":3343,"BSTAR":0.00060759817,"MEAN_MOTION_DOT":7.166e-5,"MEAN_MOTION_DDOT":0},{"OBJECT_NAME":"STARLINK-34558","OBJECT_ID":"2025-142AB","EPOCH":"2026-01-27T07:38:45.353472","MEAN_MOTION":15.00240707,"ECCENTRICITY":0.00135638,"INCLINATION":70.0015,"RA_OF_ASC_NODE":58.7671,"ARG_OF_PERICENTER":272.2631,"MEAN_ANOMALY":87.6976,"EPHEMERIS_TYPE":0,"CLASSIFICATION_TYPE":"U","NORAD_CAT_ID":64721,"ELEMENT_SET_NO":999,"REV_AT_EPOCH":3326,"BSTAR":0.097648924,"MEAN_MOTION_DOT":0.01333725,"MEAN_MOTION_DDOT":0},{"OBJECT_NAME":"STARLINK-34393","OBJECT_ID":"2025-144A","EPOCH":"2026-01-27T06:24:50.725728","MEAN_MOTION":15.30212934,"ECCENTRICITY":0.00010819,"INCLINATION":53.1618,"RA_OF_ASC_NODE":13.1813,"ARG_OF_PERICENTER":98.6308,"MEAN_ANOMALY":261.4816,"EPHEMERIS_TYPE":0,"CLASSIFICATION_TYPE":"U","NORAD_CAT_ID":64724,"ELEMENT_SET_NO":999,"REV_AT_EPOCH":3338,"BSTAR":0.0011526568,"MEAN_MOTION_DOT":0.00033949,"MEAN_MOTION_DDOT":0},{"OBJECT_NAME":"STARLINK-34562","OBJECT_ID":"2025-144B","EPOCH":"2026-01-27T05:50:03.406272","MEAN_MOTION":15.3021296,"ECCENTRICITY":0.00012529,"INCLINATION":53.1605,"RA_OF_ASC_NODE":13.743,"ARG_OF_PERICENTER":86.9835,"MEAN_ANOMALY":273.1309,"EPHEMERIS_TYPE":0,"CLASSIFICATION_TYPE":"U","NORAD_CAT_ID":64725,"ELEMENT_SET_NO":999,"REV_AT_EPOCH":3334,"BSTAR":0.0011617119,"MEAN_MOTION_DOT":0.0003422,"MEAN_MOTION_DDOT":0},{"OBJECT_NAME":"STARLINK-34557","OBJECT_ID":"2025-144C","EPOCH":"2026-01-27T05:19:40.048320","MEAN_MOTION":15.302119,"ECCENTRICITY":0.00012262,"INCLINATION":53.162,"RA_OF_ASC_NODE":13.6098,"ARG_OF_PERICENTER":78.844,"MEAN_ANOMALY":281.2699,"EPHEMERIS_TYPE":0,"CLASSIFICATION_TYPE":"U","NORAD_CAT_ID":64726,"ELEMENT_SET_NO":999,"REV_AT_EPOCH":3336,"BSTAR":0.0018450933,"MEAN_MOTION_DOT":0.0005471,"MEAN_MOTION_DDOT":0},{"OBJECT_NAME":"STARLINK-34242","OBJECT_ID":"2025-144D","EPOCH":"2026-01-27T06:00:41.651712","MEAN_MOTION":15.30212016,"ECCENTRICITY":8.81e-5,"INCLINATION":53.16,"RA_OF_ASC_NODE":13.7862,"ARG_OF_PERICENTER":98.3153,"MEAN_ANOMALY":261.7948,"EPHEMERIS_TYPE":0,"CLASSIFICATION_TYPE":"U","NORAD_CAT_ID":64727,"ELEMENT_SET_NO":999,"REV_AT_EPOCH":3336,"BSTAR":0.0013053121,"MEAN_MOTION_DOT":0.00038515,"MEAN_MOTION_DDOT":0},{"OBJECT_NAME":"STARLINK-34239","OBJECT_ID":"2025-144E","EPOCH":"2026-01-27T03:34:58.502208","MEAN_MOTION":15.30203968,"ECCENTRICITY":8.524e-5,"INCLINATION":53.1647,"RA_OF_ASC_NODE":13.8625,"ARG_OF_PERICENTER":103.0403,"MEAN_ANOMALY":257.0693,"EPHEMERIS_TYPE":0,"CLASSIFICATION_TYPE":"U","NORAD_CAT_ID":64728,"ELEMENT_SET_NO":999,"REV_AT_EPOCH":3335,"BSTAR":0.0011590861,"MEAN_MOTION_DOT":0.00034131,"MEAN_MOTION_DDOT":0},{"OBJECT_NAME":"STARLINK-34588","OBJECT_ID":"2025-144F","EPOCH":"2026-01-27T05:40:56.490816","MEAN_MOTION":15.30200112,"ECCENTRICITY":0.00014173,"INCLINATION":53.1617,"RA_OF_ASC_NODE":13.7026,"ARG_OF_PERICENTER":84.4898,"MEAN_ANOMALY":275.6264,"EPHEMERIS_TYPE":0,"CLASSIFICATION_TYPE":"U","NORAD_CAT_ID":64729,"ELEMENT_SET_NO":999,"REV_AT_EPOCH":3336,"BSTAR":0.0019861928,"MEAN_MOTION_DOT":0.00058934,"MEAN_MOTION_DDOT":0}]
