STARLINK-34515          
1 64712U 25142S   26027.29395617  .00002351  00000+0  20473-3 0  9992
2 64712  70.0015  58.6604 0003122 269.5198  90.5603 14.98332095 33263
STARLINK-34583          
1 64713U 25142T   26027.26971367  .00008337  00000+0  75075-3 0  9990
2 64713  70.0027  58.9709 0002896 265.3531  94.7296 14.95912487 33257
STARLINK-34574          
1 64714U 25142U   26027.12706829  .00009468  00000+0  79999-3 0  9990
2 64714  70.0036  59.3056 0002498 273.3444  86.7430 14.98340369 33267
STARLINK-34533          
1 64715U 25142V   26027.04761830  .00006308  00000+0  53577-3 0  9999
2 64715  70.0027  59.4354 0002917 281.4885  78.5946 14.98343398 33227
STARLINK-34548          
1 64716U 25142W   26027.29796504  .00008410  00000+0  71153-3 0  9999
2 64716  70.0015  58.7024 0003615 265.9760  94.0986 14.98341645 33260
STARLINK-34568          
1 64717U 25142X   26027.32300714  .00005687  00000+0  48409-3 0  9999
2 64717  70.0026  58.7914 0002929 268.6351  91.4472 14.98327014 33292
STARLINK-34546          
1 64718U 25142Y   26027.28961983  .00009623  00000+0  81268-3 0  9990
2 64718  70.0026  58.6711 0003006 271.2612  88.8203 14.98352261 33456
STARLINK-34577          
1 64719U 25142Z   26027.32416230  .00003583  00000+0  32742-3 0  9998
2 64719  70.0024  58.3675 0002701 273.3358  86.7490 14.95915116 33302
STARLINK-34572          
1 64720U 25142AA  26027.18531527  .00007166  00000+0  60760-3 0  9993
2 64720  70.0027  59.1113 0002508 276.1274  83.9599 14.98339252 33433
STARLINK-34558          
1 64721U 25142AB  26027.31858048  .01333725  00000+0  97649-1 0  9997
2 64721  70.0015  58.7671 0013563 272.2631  87.6976 15.00240707 33263
STARLINK-34393          
1 64724U 25144A   26027.26725377  .00033949  00000+0  11527-2 0  9990
2 64724  53.1618  13.1813 0001081  98.6308 261.4816 15.30212934 33385
STARLINK-34562          
1 64725U 25144B   26027.24309498  .00034220  00000+0  11617-2 0  9994
2 64725  53.1605  13.7430 0001252  86.9835 273.1309 15.30212960 33340
STARLINK-34557          
1 64726U 25144C   26027.22199130  .00054710  00000+0  18451-2 0  9992
2 64726  53.1620  13.6098 0001226  78.8440 281.2699 15.30211900 33367
STARLINK-34242          
1 64727U 25144D   26027.25048208  .00038515  00000+0  13053-2 0  9993
2 64727  53.1600  13.7862 0000881  98.3153 261.7948 15.30212016 33369
STARLINK-34239          
1 64728U 25144E   26027.14928822  .00034131  00000+0  11591-2 0  9996
2 64728  53.1647  13.8625 0000852 103.0403 257.0693 15.30203968 33359
STARLINK-34588          
1 64729U 25144F   26027.23676494  .00058934  00000+0  19862-2 0  9998
2 64729  53.1617  13.7026 0001417  84.4898 275.6264 15.30200112 33368
